$$SOE
2461302.500000000, A.D. 2026-Sep-19 00:00:00.0000, 2.978565416155989E+08, 3.619250431792009E+08, 1.469130058838955E+07,
2461309.500000000, A.D. 2026-Sep-26 00:00:00.0000, 2.911066700706050E+08, 3.681995012091229E+08, 1.491730854498227E+07,
2461316.500000000, A.D. 2026-Oct-03 00:00:00.0000, 2.842203238276194E+08, 3.743013429910473E+08, 1.513632344609064E+07,
2461323.500000000, A.D. 2026-Oct-10 00:00:00.0000, 2.772012490832583E+08, 3.802283897649962E+08, 1.534827032729682E+07,
2461330.500000000, A.D. 2026-Oct-17 00:00:00.0000, 2.700531930620515E+08, 3.859785170076161E+08, 1.555307630130872E+07,
2461337.500000000, A.D. 2026-Oct-24 00:00:00.0000, 2.627799046567630E+08, 3.915496527610325E+08, 1.575067049423298E+07,
2461344.500000000, A.D. 2026-Oct-31 00:00:00.0000, 2.553851352117292E+08, 3.969397758893905E+08, 1.594098396359038E+07,
2461351.500000000, A.D. 2026-Nov-07 00:00:00.0000, 2.478726397865147E+08, 4.021469143352919E+08, 1.612394957307309E+07,
2461358.500000000, A.D. 2026-Nov-14 00:00:00.0000, 2.402461790991953E+08, 4.071691442607714E+08, 1.629950187806085E+07,
2461365.500000000, A.D. 2026-Nov-21 00:00:00.0000, 2.325095203344342E+08, 4.120045907498384E+08, 1.646757724357310E+07,
2461372.500000000, A.D. 2026-Nov-28 00:00:00.0000, 2.246664358121117E+08, 4.166514270610871E+08, 1.662811404054156E+07,
2461379.500000000, A.D. 2026-Dec-05 00:00:00.0000, 2.167207031321876E+08, 4.211078717760316E+08, 1.678105253535527E+07,
2461386.500000000, A.D. 2026-Dec-12 00:00:00.0000, 2.086761069599333E+08, 4.253721869557024E+08, 1.692633471211356E+07,
2461393.500000000, A.D. 2026-Dec-19 00:00:00.0000, 2.005364405629430E+08, 4.294426773121223E+08, 1.706390420149595E+07,
2461400.500000000, A.D. 2026-Dec-26 00:00:00.0000, 1.923055069565841E+08, 4.333176895273131E+08, 1.719370625870901E+07,
2461407.500000000, A.D. 2027-Jan-02 00:00:00.0000, 1.839871199332127E+08, 4.369956115293574E+08, 1.731568774983642E+07,
2461414.500000000, A.D. 2027-Jan-09 00:00:00.0000, 1.755851050912403E+08, 4.404748717455062E+08, 1.742979713763061E+07,
2461421.500000000, A.D. 2027-Jan-16 00:00:00.0000, 1.671033008978149E+08, 4.437539383406205E+08, 1.753598446427348E+07,
2461428.500000000, A.D. 2027-Jan-23 00:00:00.0000, 1.585455598288941E+08, 4.468313184007444E+08, 1.763420132364541E+07,
2461435.500000000, A.D. 2027-Jan-30 00:00:00.0000, 1.499157497718117E+08, 4.497055570137342E+08, 1.772440080194756E+07,
2461442.500000000, A.D. 2027-Feb-06 00:00:00.0000, 1.412177561124910E+08, 4.523752365873824E+08, 1.780653737544408E+07,
2461449.500000000, A.D. 2027-Feb-13 00:00:00.0000, 1.324554840453163E+08, 4.548389776253976E+08, 1.788056690702823E+07,
2461456.500000000, A.D. 2027-Feb-20 00:00:00.0000, 1.236328587400829E+08, 4.570954401688016E+08, 1.794644689343357E+07,
2461463.500000000, A.D. 2027-Feb-27 00:00:00.0000, 1.147538247581434E+08, 4.591433226883102E+08, 1.800413657237446E+07,
2461470.500000000, A.D. 2027-Mar-06 00:00:00.0000, 1.058223477340654E+08, 4.609813603537545E+08, 1.805359676995209E+07,
2461477.500000000, A.D. 2027-Mar-13 00:00:00.0000, 9.684241672299090E+07, 4.626083247318333E+08, 1.809478980230364E+07,
2461484.500000000, A.D. 2027-Mar-20 00:00:00.0000, 8.781804608351317E+07, 4.640230240777720E+08, 1.812767946665573E+07,
2461491.500000000, A.D. 2027-Mar-27 00:00:00.0000, 7.875327709690858E+07, 4.652243036730599E+08, 1.815223105832669E+07,
2461498.500000000, A.D. 2027-Apr-03 00:00:00.0000, 6.965217952469739E+07, 4.662110461632771E+08, 1.816841139114356E+07,
2461505.500000000, A.D. 2027-Apr-10 00:00:00.0000, 6.051885316496105E+07, 4.669821719210460E+08, 1.817618881754893E+07,
2461512.500000000, A.D. 2027-Apr-17 00:00:00.0000, 5.135742942865009E+07, 4.675366394219084E+08, 1.817553324524403E+07,
2461519.500000000, A.D. 2027-Apr-24 00:00:00.0000, 4.217207301414414E+07, 4.678734455732378E+08, 1.816641613809347E+07,
2461526.500000000, A.D. 2027-May-01 00:00:00.0000, 3.296698397851927E+07, 4.679916260266171E+08, 1.814881047620600E+07,
2461533.500000000, A.D. 2027-May-08 00:00:00.0000, 2.374640051167874E+07, 4.678902562255717E+08, 1.812269070830673E+07,
2461540.500000000, A.D. 2027-May-15 00:00:00.0000, 1.451460091612575E+07, 4.675684541459878E+08, 1.808803291167331E+07,
2461547.500000000, A.D. 2027-May-22 00:00:00.0000, 5.275903228169627E+06, 4.670253821388289E+08, 1.804481509128731E+07,
2461554.500000000, A.D. 2027-May-29 00:00:00.0000, -3.965334166856892E+06, 4.662602464087671E+08, 1.799301719079486E+07,
2461561.500000000, A.D. 2027-Jun-05 00:00:00.0000, -1.320471004298981E+07, 4.652722972668871E+08, 1.793262099042690E+07,
2461568.500000000, A.D. 2027-Jun-12 00:00:00.0000, -2.243777797379277E+07, 4.640608305942471E+08, 1.786361011144871E+07,
2461575.500000000, A.D. 2027-Jun-19 00:00:00.0000, -3.166004443705122E+07, 4.626251895849246E+08, 1.778597008136538E+07,
2461582.500000000, A.D. 2027-Jun-26 00:00:00.0000, -4.086696710696968E+07, 4.609647665117524E+08, 1.769968841328260E+07,
2461589.500000000, A.D. 2027-Jul-03 00:00:00.0000, -5.005395320400920E+07, 4.590790045282077E+08, 1.760475468838027E+07,
2461596.500000000, A.D. 2027-Jul-10 00:00:00.0000, -5.921635786754759E+07, 4.569673995203428E+08, 1.750116063919997E+07,
2461603.500000000, A.D. 2027-Jul-17 00:00:00.0000, -6.834948251698548E+07, 4.546295019744552E+08, 1.738890022756529E+07,
2461610.500000000, A.D. 2027-Jul-24 00:00:00.0000, -7.744857304740433E+07, 4.520649188013923E+08, 1.726796969795990E+07,
2461617.500000000, A.D. 2027-Jul-31 00:00:00.0000, -8.650881745240207E+07, 4.492733153564640E+08, 1.713836758824840E+07,
2461624.500000000, A.D. 2027-Aug-07 00:00:00.0000, -9.552534308071023E+07, 4.462544188119115E+08, 1.700009481073385E+07,
2461631.500000000, A.D. 2027-Aug-14 00:00:00.0000, -1.044932158333692E+08, 4.430080226361678E+08, 1.685315499430647E+07,
2461638.500000000, A.D. 2027-Aug-21 00:00:00.0000, -1.134074406881272E+08, 4.395339888216338E+08, 1.669755475643802E+07,
2461645.500000000, A.D. 2027-Aug-28 00:00:00.0000, -1.222629601276072E+08, 4.358322490710899E+08, 1.653330368918309E+07,
2461652.500000000, A.D. 2027-Sep-04 00:00:00.0000, -1.310546516593168E+08, 4.319028074560563E+08, 1.636041437218797E+07,
2461659.500000000, A.D. 2027-Sep-11 00:00:00.0000, -1.397773258278173E+08, 4.277457438945780E+08, 1.617890248652780E+07,
2461666.500000000, A.D. 2027-Sep-18 00:00:00.0000, -1.484257245922562E+08, 4.233612178048837E+08, 1.598878696394980E+07,
2461673.500000000, A.D. 2027-Sep-25 00:00:00.0000, -1.569945198484466E+08, 4.187494718642262E+08, 1.579009014416024E+07,
2461680.500000000, A.D. 2027-Oct-02 00:00:00.0000, -1.654783120295744E+08, 4.139108359080110E+08, 1.558283793551260E+07,
2461687.500000000, A.D. 2027-Oct-09 00:00:00.0000, -1.738716287731007E+08, 4.088457309726545E+08, 1.536705997668967E+07,
2461694.500000000, A.D. 2027-Oct-16 00:00:00.0000, -1.821689236016111E+08, 4.035546734354378E+08, 1.514278978915724E+07,
2461701.500000000, A.D. 2027-Oct-23 00:00:00.0000, -1.903645743696783E+08, 3.980382792538164E+08, 1.491006489620057E+07,
2461708.500000000, A.D. 2027-Oct-30 00:00:00.0000, -1.984528811154226E+08, 3.922972689227512E+08, 1.466892692422375E+07,
2461715.500000000, A.D. 2027-Nov-06 00:00:00.0000, -2.064280644954021E+08, 3.863324742875726E+08, 1.441942188538784E+07,
2461722.500000000, A.D. 2027-Nov-13 00:00:00.0000, -2.142842668031514E+08, 3.801448451462392E+08, 1.416160065409511E+07,
2461729.500000000, A.D. 2027-Nov-20 00:00:00.0000, -2.220155526838942E+08, 3.737354534609420E+08, 1.389551919280607E+07,
2461736.500000000, A.D. 2027-Nov-27 00:00:00.0000, -2.296159079475948E+08, 3.671054981487816E+08, 1.362123862155557E+07,
2461743.500000000, A.D. 2027-Dec-04 00:00:00.0000, -2.370792385259008E+08, 3.602563113750623E+08, 1.333882539168242E+07,
2461750.500000000, A.D. 2027-Dec-11 00:00:00.0000, -2.443993701445233E+08, 3.531893653935633E+08, 1.304835153567414E+07,
2461757.500000000, A.D. 2027-Dec-18 00:00:00.0000, -2.515700484587654E+08, 3.459062796007200E+08, 1.274989494047377E+07,
2461764.500000000, A.D. 2027-Dec-25 00:00:00.0000, -2.585849395253600E+08, 3.384088278069450E+08, 1.244353963041380E+07,
2461771.500000000, A.D. 2028-Jan-01 00:00:00.0000, -2.654376305964224E+08, 3.306989457445900E+08, 1.212937605742583E+07,
$$EOE